APRIZESAT 2             
1 28366U 04025A   26168.42387750  .00000120  00000+0  50852-4 0  9991
2 28366  98.1014 334.3908 0104347 249.1238 109.8754 14.38035860151670
SAUDICOMSAT 1           
1 28369U 04025D   26168.49746812  .00000289  00000+0  77390-4 0  9991
2 28369  98.5771 178.6372 0032618  24.7481 335.5271 14.55473999164178
SAUDICOMSAT 2           
1 28370U 04025E   26168.53915102  .00000181  00000+0  58774-4 0  9994
2 28370  98.6640 180.7953 0054175 258.3949 101.1160 14.49981400160153
APRIZESAT 1             
1 28372U 04025G   26168.84607450  .00000177  00000+0  55634-4 0  9991
2 28372  98.6302 179.5895 0045154 151.8789 208.4858 14.51777299162000
NANOSAT-1               
1 28493U 04049B   26168.57470050  .00000800  00000+0  11273-3 0  9998
2 28493  98.2277 305.2451 0002819 300.7526  59.3407 14.80160166155503
SAUDICOMSAT 7           
1 31119U 07012C   26168.45401409  .00000336  00000+0  69415-4 0  9995
2 31119  98.3778 142.5912 0055310 194.3483 165.6152 14.66110404 22477
SAUDICOMSAT 6           
1 31121U 07012E   26168.77441267  .00000453  00000+0  96509-4 0  9993
2 31121  98.4098 136.3017 0071020 325.9283  33.7369 14.62558972 20272
SAUDICOMSAT 5           
1 31124U 07012H   26168.83601340  .00000504  00000+0  95296-4 0  9992
2 31124  98.3489 143.7279 0048488 122.7068 237.8825 14.68157087 23697
SAUDICOMSAT 3           
1 31125U 07012J   26167.91100322  .00000705  00000+0  12308-3 0  9990
2 31125  98.3143 143.3325 0040252  54.0890 306.4041 14.70705411 24781
SAUDICOMSAT 4           
1 31127U 07012L   26167.88135730  .00000361  00000+0  76313-4 0  9994
2 31127  98.3983 140.4456 0062064 259.1992 100.2220 14.64512027 21243
APRIZESAT 4             
1 35684U 09041D   26168.72906586  .00000516  00000+0  68318-4 0  9997
2 35684  98.1413 244.0604 0042370 321.2611  38.5566 14.83879933911443
APRIZESAT 3             
1 35686U 09041F   26168.36647334  .00001525  00000+0  13572-3 0  9994
2 35686  98.2062 321.5987 0062791  67.1799 293.6036 14.96242028916403
S-NET D                 
1 43186U 18014G   26168.79175731  .00003959  00000+0  20549-3 0  9997
2 43186  97.5361  73.5787 0008883  28.6350 331.5369 15.16678644458851
S-NET B                 
1 43187U 18014H   26168.80322317  .00004210  00000+0  21848-3 0  9998
2 43187  97.5366  73.5769 0009388  23.3551 336.8107 15.16648511458851
S-NET A                 
1 43188U 18014J   26168.65868169  .00003875  00000+0  20114-3 0  9993
2 43188  97.5378  73.6419 0009280  24.6066 335.5608 15.16685227458839
S-NET C                 
1 43189U 18014K   26168.80710227  .00004375  00000+0  22689-3 0  9997
2 43189  97.5396  73.8643 0010377  15.6904 344.4648 15.16640692457403
SALSAT                  
1 46495U 20068K   26168.53797512  .00006219  00000+0  21821-3 0  9990
2 46495  97.8847 171.6239 0008040 306.6544  53.3955 15.29803905315418
OOV-CUBE (TUBSAT-30)    
1 60240U 24128F   26168.65432346  .00001478  00000+0  12352-3 0  9990
2 60240  61.9933 223.9441 0044583 133.8615 226.6174 15.02775098106189
LPNTSAT-001 (IOD-1)     
1 68408U 26065A   26168.60392418  .00002280  00000+0  11336-3 0  9999
2 68408  97.4013  49.1049 0016616   9.3580 350.7960 15.18539953 12321
